#aV2013  9 26  0  0  0.00000000     288 DD+AD WGS84 FIT  NGA
## 1759 345600.00000000   300.00000000 56561 0.0000000000000
+   31     1  2  3  4  5  6  7  8  9 10 11 12 13 14 15 16 17
+         18 19 20 21 22 23 24 25 26 27 28 29 31 32  0  0  0
+          0  0  0  0  0  0  0  0  0  0  0  0  0  0  0  0  0
+          0  0  0  0  0  0  0  0  0  0  0  0  0  0  0  0  0
+          0  0  0  0  0  0  0  0  0  0  0  0  0  0  0  0  0
++         2  2  2  2  2  2  2  2  2  2  2  2  2  2  2  2  2
++         2  2  2  2  2  2  2  2  2  2  2  2  2  2  2  0  0
++         0  0  0  0  0  0  0  0  0  0  0  0  0  0  0  0  0
++         0  0  0  0  0  0  0  0  0  0  0  0  0  0  0  0  0
++         0  0  0  0  0  0  0  0  0  0  0  0  0  0  0  0  0
%c cc cc ccc ccc cccc cccc cccc cccc ccccc ccccc ccccc ccccc
%c cc cc ccc ccc cccc cccc cccc cccc ccccc ccccc ccccc ccccc
%f  0.0000000  0.000000000  0.00000000000  0.000000000000000
%f  0.0000000  0.000000000  0.00000000000  0.000000000000000
%i    0    0    0    0      0      0      0      0         0
%i    0    0    0    0      0      0      0      0         0
/*      NGA, ST. LOUIS,MO.                                  
/*   EPHEMERIS COMPUTED FROM  1 DAYS OF DATA
/*   EPOCHA SMOOTHER  
/* CCCCCCCCCCCCCCCCCCCCCCCCCCCCCCCCCCCCCCCCCCCCCCCCCCCCCCCCC
*  2013  9 26  6 10  0.00000000                                                 
P  1 -18887.925876  -7008.482581  17333.684769     78.738136                    
V  1 -10493.464456 -19436.958253 -19156.144525      0.039553                    
P  2  13473.888074  23106.901782   2427.344751    453.073912                    
V  2  -4062.820547   -601.890784  30743.387869      0.017659                    
P  3 -16471.197381 -10663.785698 -18521.378258    264.489016                    
V  3  21708.335194  -5968.031324 -16161.192527      0.050938                    
P  4   3321.456394  22591.321310  13042.649969      1.218632                    
V  4 -11968.404987 -12734.473648  24809.689279      0.005318                    
P  5   6557.610278  17261.933049 -19066.229886   -399.479049                    
V  5 -12411.453783  20879.689323  14807.646669      0.002059                    
P  6  -9908.711478 -13814.636298 -20430.366095     72.438777                    
V  6  25783.301431  -3857.542394  -9488.225574      0.187257                    
P  7 -12338.888851   8321.100312 -21932.941964    262.778078                    
V  7 -14810.741940 -23712.800808   -976.167144      0.041881                    
P  8  -4880.765768  17644.126885 -18865.774285      8.694557                    
V  8 -11850.948134 -21331.398803 -17358.445014      0.001866                    
P  9  -3630.733786  18235.916742 -19448.136312    271.148635                    
V  9 -13594.116670 -19262.328363 -16089.469474      0.027237                    
P 10  -7413.491002  24418.383100  -6823.953329    -95.858552                    
V 10  -7039.681534   5756.983041  29996.978163     -0.014005                    
P 11 -22940.142006 -10684.147760   7991.638354   -423.132620                    
V 11  -5416.133447 -10412.501231 -27587.748025     -0.034519                    
P 12  15802.535430    586.642068  21254.526260    158.530197                    
V 12 -12607.206899  23965.980857   8890.881600      0.021991                    
P 13 -23913.102567   5691.127973 -10375.186073     76.205408                    
V 13 -12793.080698  -2499.992036  28331.355100     -0.038129                    
P 14   7124.392602 -14387.429333  21346.724359    214.877938                    
V 14  26575.706945   1282.254920  -8234.383624     -0.009203                    
P 15  25197.587453   3816.829922  -7975.494418   -138.941281                    
V 15  -9770.749255   3834.003609 -28875.580762     -0.018688                    
P 16  -5159.964563 -17003.510193 -19656.299721   -245.903073                    
V 16  13482.784930 -21006.891100  14980.256965      0.008412                    
P 17  -8562.016081  14420.571473  20763.364344    -25.074599                    
V 17 -25908.135888   -721.752514 -10527.322127     -0.037530                    
P 18  16307.297308 -19020.297695  -7855.878987    276.089956                    
V 18  -1311.664830  11327.961741 -28959.496372      0.020110                    
P 19 -23100.023462  -8433.208840 -10687.569258   -406.937224                    
V 19  13325.606930  -1467.729891 -27529.554746     -0.027844                    
P 20 -17745.160760   5089.250997  18892.881725    125.033056                    
V 20   8288.589106 -23134.426750  13961.625750      0.026360                    
P 21  10618.029988 -11809.961654 -20648.099500   -320.560396                    
V 21  15850.823161  22808.987204  -5260.601382     -0.018844                    
P 22   9847.177476 -24404.770956   3139.456116    186.649191                    
V 22   5306.547818  -1535.792116 -30687.047755      0.020505                    
P 23 -26773.280570    666.341777    482.673586     44.771456                    
V 23    396.438401  -2698.269484  31332.664266     -0.034620                    
P 24  19390.058321  10796.859571  14623.153724    -14.426427                    
V 24   8434.609099  16671.666309 -23433.253107     -0.006622                    
P 25  17741.884240 -13426.461006  14372.451509    151.276152                    
V 25  -6611.047743  17235.834259  24257.686149      0.039725                    
P 26  14780.393734  13168.771111 -18502.632982    208.403189                    
V 26 -22058.964210    -66.781014 -18002.870852      0.186536                    
P 27 -13361.419389 -12695.675448 -19140.617166    -40.954479                    
V 27  24172.542314  -2608.570952 -15139.390223     -0.044126                    
P 28 -12901.879408  23102.045205    944.450673    295.642110                    
V 28  -2143.747602   -699.488635 -32363.990336      0.031380                    
P 29  25174.985648  -4745.434321  -6891.768239    473.776166                    
V 29   8805.746190   2540.760932  30283.204272      0.031185                    
P 31  -4152.470625 -22998.761745  12514.664762    326.661826                    
V 31   9837.096408  12386.947949  26661.545936      0.007927                    
P 32 -13867.552153  -7044.899669  21612.316723   -545.815831                    
V 32  14131.816724 -23319.468592   2004.895038      0.031122                    
EOF
